[
    {
        "Altitude(m)": 559659.2356501555,
        "Argument of Periapsis(deg)": 0.026491964442854003,
        "Eccentricity": 0.0,
        "Inclination(deg)": 53.0,
        "Latitude(deg)": 52.096707239092694,
        "Longitude(deg)": 91.08982193127702,
        "Mean Anomaly(deg)": 80.36647147031036,
        "RAAN(deg)": 119.96057347411205,
        "Satellite Name": "Starlink Shell 1 530",
        "Satellite Number": 530,
        "Semi-Major Axis(m)": 6931778.249405717,
        "Time(s)": 760
    },
    {
        "Altitude(m)": 559689.3002568053,
        "Argument of Periapsis(deg)": 0.02684054292236524,
        "Eccentricity": 0.0,
        "Inclination(deg)": 53.0,
        "Latitude(deg)": 52.22824207453476,
        "Longitude(deg)": 92.04494329125131,
        "Mean Anomaly(deg)": 80.99330267386708,
        "RAAN(deg)": 119.96005470403459,
        "Satellite Name": "Starlink Shell 1 530",
        "Satellite Number": 530,
        "Semi-Major Axis(m)": 6931778.249405717,
        "Time(s)": 770
    },
    {
        "Altitude(m)": 559717.4220827153,
        "Argument of Periapsis(deg)": 0.027189121401876473,
        "Eccentricity": 0.0,
        "Inclination(deg)": 53.0,
        "Latitude(deg)": 52.35131827891812,
        "Longitude(deg)": 93.00577587904436,
        "Mean Anomaly(deg)": 81.62013387742377,
        "RAAN(deg)": 119.95953593395711,
        "Satellite Name": "Starlink Shell 1 530",
        "Satellite Number": 530,
        "Semi-Major Axis(m)": 6931778.249405717,
        "Time(s)": 780
    },
    {
        "Altitude(m)": 559743.5842372394,
        "Argument of Periapsis(deg)": 0.02753769988138771,
        "Eccentricity": 0.0,
        "Inclination(deg)": 53.0,
        "Latitude(deg)": 52.4658517428872,
        "Longitude(deg)": 93.97199218156462,
        "Mean Anomaly(deg)": 82.24696508098049,
        "RAAN(deg)": 119.95901716387964,
        "Satellite Name": "Starlink Shell 1 530",
        "Satellite Number": 530,
        "Semi-Major Axis(m)": 6931778.249405717,
        "Time(s)": 790
    },
    {
        "Altitude(m)": 559767.7710173363,
        "Argument of Periapsis(deg)": 0.02788627836089895,
        "Eccentricity": 0.0,
        "Inclination(deg)": 53.0,
        "Latitude(deg)": 52.571763209206175,
        "Longitude(deg)": 94.94324991893218,
        "Mean Anomaly(deg)": 82.87379628453719,
        "RAAN(deg)": 119.95849839380216,
        "Satellite Name": "Starlink Shell 1 530",
        "Satellite Number": 530,
        "Semi-Major Axis(m)": 6931778.249405717,
        "Time(s)": 800
    },
    {
        "Altitude(m)": 559789.9679152451,
        "Argument of Periapsis(deg)": 0.02823485684041019,
        "Eccentricity": 0.0,
        "Inclination(deg)": 53.0,
        "Latitude(deg)": 52.66897852827126,
        "Longitude(deg)": 95.91919320500487,
        "Mean Anomaly(deg)": 83.50062748809394,
        "RAAN(deg)": 119.95797962372471,
        "Satellite Name": "Starlink Shell 1 530",
        "Satellite Number": 530,
        "Semi-Major Axis(m)": 6931778.249405717,
        "Time(s)": 810
    },
    {
        "Altitude(m)": 559810.1616255577,
        "Argument of Periapsis(deg)": 0.028583435319921423,
        "Eccentricity": 0.0,
        "Inclination(deg)": 53.0,
        "Latitude(deg)": 52.757428902025715,
        "Longitude(deg)": 96.8994537926957,
        "Mean Anomaly(deg)": 84.12745869165063,
        "RAAN(deg)": 119.95746085364722,
        "Satellite Name": "Starlink Shell 1 530",
        "Satellite Number": 530,
        "Semi-Major Axis(m)": 6931778.249405717,
        "Time(s)": 820
    },
    {
        "Altitude(m)": 559828.3400517048,
        "Argument of Periapsis(deg)": 0.028932013799432665,
        "Eccentricity": 0.0,
        "Inclination(deg)": 53.0,
        "Latitude(deg)": 52.8370511145699,
        "Longitude(deg)": 97.88365088938349,
        "Mean Anomaly(deg)": 84.75428989520735,
        "RAAN(deg)": 119.95694208356976,
        "Satellite Name": "Starlink Shell 1 530",
        "Satellite Number": 530,
        "Semi-Major Axis(m)": 6931778.249405717,
        "Time(s)": 830
    },
    {
        "Altitude(m)": 559844.4923118405,
        "Argument of Periapsis(deg)": 0.029280592278943897,
        "Eccentricity": 0.0,
        "Inclination(deg)": 53.0,
        "Latitude(deg)": 52.90778774771464,
        "Longitude(deg)": 98.87139256465674,
        "Mean Anomaly(deg)": 85.38112109876407,
        "RAAN(deg)": 119.95642331349228,
        "Satellite Name": "Starlink Shell 1 530",
        "Satellite Number": 530,
        "Semi-Major Axis(m)": 6931778.249405717,
        "Time(s)": 840
    },
    {
        "Altitude(m)": 559858.608744148,
        "Argument of Periapsis(deg)": 0.029629170758455132,
        "Eccentricity": 0.0,
        "Inclination(deg)": 53.0,
        "Latitude(deg)": 52.969587379811664,
        "Longitude(deg)": 99.86227723317823,
        "Mean Anomaly(deg)": 86.00795230232077,
        "RAAN(deg)": 119.95590454341479,
        "Satellite Name": "Starlink Shell 1 530",
        "Satellite Number": 530,
        "Semi-Major Axis(m)": 6931778.249405717,
        "Time(s)": 850
    },
    {
        "Altitude(m)": 559870.6809115453,
        "Argument of Periapsis(deg)": 0.02997774923796637,
        "Eccentricity": 0.0,
        "Inclination(deg)": 53.0,
        "Latitude(deg)": 53.022404766291025,
        "Longitude(deg)": 100.8558935264433,
        "Mean Anomaly(deg)": 86.63478350587752,
        "RAAN(deg)": 119.95538577333733,
        "Satellite Name": "Starlink Shell 1 530",
        "Satellite Number": 530,
        "Semi-Major Axis(m)": 6931778.249405717,
        "Time(s)": 860
    },
    {
        "Altitude(m)": 559880.7016057896,
        "Argument of Periapsis(deg)": 0.030326327717477602,
        "Eccentricity": 0.0,
        "Inclination(deg)": 53.0,
        "Latitude(deg)": 53.06620100044857,
        "Longitude(deg)": 101.8518227497384,
        "Mean Anomaly(deg)": 87.26161470943421,
        "RAAN(deg)": 119.95486700325988,
        "Satellite Name": "Starlink Shell 1 530",
        "Satellite Number": 530,
        "Semi-Major Axis(m)": 6931778.249405717,
        "Time(s)": 870
    },
    {
        "Altitude(m)": 559888.6648509838,
        "Argument of Periapsis(deg)": 0.030674906196988847,
        "Eccentricity": 0.0,
        "Inclination(deg)": 53.0,
        "Latitude(deg)": 53.10094365316635,
        "Longitude(deg)": 102.84963887443782,
        "Mean Anomaly(deg)": 87.88844591299093,
        "RAAN(deg)": 119.95434823318239,
        "Satellite Name": "Starlink Shell 1 530",
        "Satellite Number": 530,
        "Semi-Major Axis(m)": 6931778.249405717,
        "Time(s)": 880
    },
    {
        "Altitude(m)": 559894.5659064793,
        "Argument of Periapsis(deg)": 0.031023484676500086,
        "Eccentricity": 0.0,
        "Inclination(deg)": 53.0,
        "Latitude(deg)": 53.12660689040145,
        "Longitude(deg)": 103.84891026038689,
        "Mean Anomaly(deg)": 88.51527711654762,
        "RAAN(deg)": 119.95382946310491,
        "Satellite Name": "Starlink Shell 1 530",
        "Satellite Number": 530,
        "Semi-Major Axis(m)": 6931778.249405717,
        "Time(s)": 890
    },
    {
        "Altitude(m)": 559898.4012691966,
        "Argument of Periapsis(deg)": 0.03137206315601132,
        "Eccentricity": 0.0,
        "Inclination(deg)": 53.0,
        "Latitude(deg)": 53.143171567453685,
        "Longitude(deg)": 104.84920141906194,
        "Mean Anomaly(deg)": 89.14210832010436,
        "RAAN(deg)": 119.95331069302745,
        "Satellite Name": "Starlink Shell 1 530",
        "Satellite Number": 530,
        "Semi-Major Axis(m)": 6931778.249405717,
        "Time(s)": 900
    },
    {
        "Altitude(m)": 559900.1686753081,
        "Argument of Periapsis(deg)": 0.03172064163552255,
        "Eccentricity": 0.0,
        "Inclination(deg)": 53.0,
        "Latitude(deg)": 53.15062529920965,
        "Longitude(deg)": 105.85007329574283,
        "Mean Anomaly(deg)": 89.76893952366107,
        "RAAN(deg)": 119.95279192294996,
        "Satellite Name": "Starlink Shell 1 530",
        "Satellite Number": 530,
        "Semi-Major Axis(m)": 6931778.249405717,
        "Time(s)": 910
    },
    {
        "Altitude(m)": 559899.8671013498,
        "Argument of Periapsis(deg)": 0.0320692201150338,
        "Eccentricity": 0.0,
        "Inclination(deg)": 53.0,
        "Latitude(deg)": 53.14896250576017,
        "Longitude(deg)": 106.85108508713247,
        "Mean Anomaly(deg)": 90.3957707272178,
        "RAAN(deg)": 119.9522731528725,
        "Satellite Name": "Starlink Shell 1 530",
        "Satellite Number": 530,
        "Semi-Major Axis(m)": 6931778.249405717,
        "Time(s)": 920
    },
    {
        "Altitude(m)": 559897.4967647067,
        "Argument of Periapsis(deg)": 0.032417798594545036,
        "Eccentricity": 0.0,
        "Inclination(deg)": 53.0,
        "Latitude(deg)": 53.13818443299731,
        "Longitude(deg)": 107.85179607191516,
        "Mean Anomaly(deg)": 91.0226019307745,
        "RAAN(deg)": 119.95175438279503,
        "Satellite Name": "Starlink Shell 1 530",
        "Satellite Number": 530,
        "Semi-Major Axis(m)": 6931778.249405717,
        "Time(s)": 930
    },
    {
        "Altitude(m)": 559893.0591235108,
        "Argument of Periapsis(deg)": 0.03276637707405627,
        "Eccentricity": 0.0,
        "Inclination(deg)": 53.0,
        "Latitude(deg)": 53.118299148014316,
        "Longitude(deg)": 108.85176593156838,
        "Mean Anomaly(deg)": 91.64943313433122,
        "RAAN(deg)": 119.95123561271755,
        "Satellite Name": "Starlink Shell 1 530",
        "Satellite Number": 530,
        "Semi-Major Axis(m)": 6931778.249405717,
        "Time(s)": 940
    }
]